GLOBALSTAR M075         
1 37192U 10054E   25092.64616687 -.00000106  00000+0 -10055-4 0  9997
2 37192  51.9959  51.5381 0000390  75.9758  94.9133 12.62262757666836
GLOBALSTAR M073         
1 37193U 10054F   25092.86459319 -.00000075  00000+0  16325-3 0  9998
2 37193  52.0077 324.6422 0000786  95.5711 346.4729 12.62269810668370
GLOBALSTAR M083         
1 37739U 11033A   25092.80905834 -.00000055  00000+0  27494-3 0  9991
2 37739  51.9849 273.6433 0000921  93.1341  37.5815 12.62262088637695
GLOBALSTAR M088         
1 37740U 11033B   25092.53903578 -.00000074  00000+0  16698-3 0  9991
2 37740  51.9726 180.0183 0000558 112.3256 351.5323 12.62264855632848
GLOBALSTAR M089         
1 37744U 11033F   25092.82724464 -.00000097  00000+0  37936-4 0  9996
2 37744  51.9941  50.6457 0000257 102.5321 291.2664 12.62268065635429
